SL-4 R/B                
1 39679U 14021B   26013.08333801  .00006814  00000+0  16446-3 0  9992
2 39679  51.6067 248.1793 0099408 259.9050  99.0706 15.37493577647712
ALOS-2                  
1 39766U 14029A   26013.25995559  .00000227  00000+0  37257-4 0  9996
2 39766  97.9203 112.6547 0001466  97.3705 262.7673 14.79478872628676
YAOGAN-29               
1 41038U 15069A   26013.33108844  .00000201  00000+0  31524-4 0  9991
2 41038  98.0204  41.6012 0002180 128.9240 231.2168 14.82923014547678
ASTRO-H (HITOMI)        
1 41337U 16012A   26013.23236314  .00002492  00000+0  14553-3 0  9991
2 41337  31.0011 354.3115 0009645 136.6601 223.4796 15.09587732543849
HXMT (HUIYAN)           
1 42758U 17034A   26013.27507361  .00005444  00000+0  28087-3 0  9998
2 42758  43.0159 324.5783 0033477 245.2684 114.4678 15.16695055474129
CZ-2C R/B               
1 43521U 18054D   26013.24095806  .00172913  00000+0  77148-3 0  9991
2 43521  35.1341 326.0528 0010235 113.0583 247.1233 15.82695941420033
SAOCOM 1A               
1 43641U 18076A   26013.26682286 -.00000430  00000+0 -47480-4 0  9997
2 43641  97.8854 202.2303 0001461  86.5011 273.6369 14.82145149393152
H-2A R/B                
1 43682U 18084L   26013.11594923  .00013916  00000+0  36181-3 0  9991
2 43682  98.8769 218.7337 0025892 215.4132 144.5391 15.38751343397227
SAOCOM 1B               
1 46265U 20059A   26013.29802315  .00000386  00000+0  54997-4 0  9995
2 46265  97.8853 201.3603 0001356  84.2793 275.8574 14.82148585290542
CSS (TIANHE)            
1 48274U 21035A   26013.15137825  .00016157  00000+0  19385-3 0  9998
2 48274  41.4653 185.8172 0011496 274.9495  85.0032 15.60470447268937
COSMOS 2550             
1 48865U 21056A   26013.28651593 -.00000174  00000+0  53931-6 0  9995
2 48865  67.1410 208.5133 0008287 269.9029  90.1176 15.33832982254960
CZ-2C R/B               
1 52794U 22058K   26013.02141274  .00016407  00000+0  27983-3 0  9996
2 52794  50.1896 243.8028 0043100 326.7511  33.0752 15.50415241201481
