CCSDS_OMM_VERS = 2.0
CREATION_DATE  = 
ORIGINATOR     = 

OBJECT_NAME    = SL-4 R/B
OBJECT_ID      = 2014-021B
CENTER_NAME    = EARTH
REF_FRAME      = TEME
TIME_SYSTEM    = UTC
MEAN_ELEMENT_THEORY = SGP/SGP4

EPOCH          = 2026-01-13T02:00:00.404064
MEAN_MOTION    = 15.37493577
ECCENTRICITY   = .00994084
INCLINATION    = 51.6067
RA_OF_ASC_NODE = 248.1793
ARG_OF_PERICENTER = 259.9050
MEAN_ANOMALY   = 99.0706

EPHEMERIS_TYPE = 0
CLASSIFICATION_TYPE = U
NORAD_CAT_ID   = 39679
ELEMENT_SET_NO = 999
REV_AT_EPOCH   = 64771
BSTAR          = .1644611E-3
MEAN_MOTION_DOT = .6814E-4
MEAN_MOTION_DDOT = 0

CCSDS_OMM_VERS = 2.0
CREATION_DATE  = 
ORIGINATOR     = 

OBJECT_NAME    = ALOS-2
OBJECT_ID      = 2014-029A
CENTER_NAME    = EARTH
REF_FRAME      = TEME
TIME_SYSTEM    = UTC
MEAN_ELEMENT_THEORY = SGP/SGP4

EPOCH          = 2026-01-13T06:14:20.162976
MEAN_MOTION    = 14.79478872
ECCENTRICITY   = .00014667
INCLINATION    = 97.9203
RA_OF_ASC_NODE = 112.6547
ARG_OF_PERICENTER = 97.3705
MEAN_ANOMALY   = 262.7673

EPHEMERIS_TYPE = 0
CLASSIFICATION_TYPE = U
NORAD_CAT_ID   = 39766
ELEMENT_SET_NO = 999
REV_AT_EPOCH   = 62867
BSTAR          = .37257297E-4
MEAN_MOTION_DOT = .227E-5
MEAN_MOTION_DDOT = 0

CCSDS_OMM_VERS = 2.0
CREATION_DATE  = 
ORIGINATOR     = 

OBJECT_NAME    = YAOGAN-29
OBJECT_ID      = 2015-069A
CENTER_NAME    = EARTH
REF_FRAME      = TEME
TIME_SYSTEM    = UTC
MEAN_ELEMENT_THEORY = SGP/SGP4

EPOCH          = 2026-01-13T07:56:46.041216
MEAN_MOTION    = 14.82923014
ECCENTRICITY   = .00021804
INCLINATION    = 98.0204
RA_OF_ASC_NODE = 41.6012
ARG_OF_PERICENTER = 128.9240
MEAN_ANOMALY   = 231.2168

EPHEMERIS_TYPE = 0
CLASSIFICATION_TYPE = U
NORAD_CAT_ID   = 41038
ELEMENT_SET_NO = 999
REV_AT_EPOCH   = 54767
BSTAR          = .31523992E-4
MEAN_MOTION_DOT = .201E-5
MEAN_MOTION_DDOT = 0

CCSDS_OMM_VERS = 2.0
CREATION_DATE  = 
ORIGINATOR     = 

OBJECT_NAME    = ASTRO-H (HITOMI)
OBJECT_ID      = 2016-012A
CENTER_NAME    = EARTH
REF_FRAME      = TEME
TIME_SYSTEM    = UTC
MEAN_ELEMENT_THEORY = SGP/SGP4

EPOCH          = 2026-01-13T05:34:36.175296
MEAN_MOTION    = 15.09587732
ECCENTRICITY   = .00096455
INCLINATION    = 31.0011
RA_OF_ASC_NODE = 354.3115
ARG_OF_PERICENTER = 136.6601
MEAN_ANOMALY   = 223.4796

EPHEMERIS_TYPE = 0
CLASSIFICATION_TYPE = U
NORAD_CAT_ID   = 41337
ELEMENT_SET_NO = 999
REV_AT_EPOCH   = 54384
BSTAR          = .14552578E-3
MEAN_MOTION_DOT = .2492E-4
MEAN_MOTION_DDOT = 0

CCSDS_OMM_VERS = 2.0
CREATION_DATE  = 
ORIGINATOR     = 

OBJECT_NAME    = HXMT (HUIYAN)
OBJECT_ID      = 2017-034A
CENTER_NAME    = EARTH
REF_FRAME      = TEME
TIME_SYSTEM    = UTC
MEAN_ELEMENT_THEORY = SGP/SGP4

EPOCH          = 2026-01-13T06:36:06.359904
MEAN_MOTION    = 15.16695055
ECCENTRICITY   = .00334778
INCLINATION    = 43.0159
RA_OF_ASC_NODE = 324.5783
ARG_OF_PERICENTER = 245.2684
MEAN_ANOMALY   = 114.4678

EPHEMERIS_TYPE = 0
CLASSIFICATION_TYPE = U
NORAD_CAT_ID   = 42758
ELEMENT_SET_NO = 999
REV_AT_EPOCH   = 47412
BSTAR          = .28086932E-3
MEAN_MOTION_DOT = .5444E-4
MEAN_MOTION_DDOT = 0

CCSDS_OMM_VERS = 2.0
CREATION_DATE  = 
ORIGINATOR     = 

OBJECT_NAME    = CZ-2C R/B
OBJECT_ID      = 2018-054D
CENTER_NAME    = EARTH
REF_FRAME      = TEME
TIME_SYSTEM    = UTC
MEAN_ELEMENT_THEORY = SGP/SGP4

EPOCH          = 2026-01-13T05:46:58.776384
MEAN_MOTION    = 15.82695941
ECCENTRICITY   = .0010235
INCLINATION    = 35.1341
RA_OF_ASC_NODE = 326.0528
ARG_OF_PERICENTER = 113.0583
MEAN_ANOMALY   = 247.1233

EPHEMERIS_TYPE = 0
CLASSIFICATION_TYPE = U
NORAD_CAT_ID   = 43521
ELEMENT_SET_NO = 999
REV_AT_EPOCH   = 42003
BSTAR          = .77147792E-3
MEAN_MOTION_DOT = .172913E-2
MEAN_MOTION_DDOT = 0

CCSDS_OMM_VERS = 2.0
CREATION_DATE  = 
ORIGINATOR     = 

OBJECT_NAME    = SAOCOM 1A
OBJECT_ID      = 2018-076A
CENTER_NAME    = EARTH
REF_FRAME      = TEME
TIME_SYSTEM    = UTC
MEAN_ELEMENT_THEORY = SGP/SGP4

EPOCH          = 2026-01-13T06:24:13.495104
MEAN_MOTION    = 14.82145149
ECCENTRICITY   = .00014617
INCLINATION    = 97.8854
RA_OF_ASC_NODE = 202.2303
ARG_OF_PERICENTER = 86.5011
MEAN_ANOMALY   = 273.6369

EPHEMERIS_TYPE = 0
CLASSIFICATION_TYPE = U
NORAD_CAT_ID   = 43641
ELEMENT_SET_NO = 999
REV_AT_EPOCH   = 39315
BSTAR          = -.47480114E-4
MEAN_MOTION_DOT = -.43E-5
MEAN_MOTION_DDOT = 0

CCSDS_OMM_VERS = 2.0
CREATION_DATE  = 
ORIGINATOR     = 

OBJECT_NAME    = H-2A R/B
OBJECT_ID      = 2018-084L
CENTER_NAME    = EARTH
REF_FRAME      = TEME
TIME_SYSTEM    = UTC
MEAN_ELEMENT_THEORY = SGP/SGP4

EPOCH          = 2026-01-13T02:46:58.013472
MEAN_MOTION    = 15.38751343
ECCENTRICITY   = .00258922
INCLINATION    = 98.8769
RA_OF_ASC_NODE = 218.7337
ARG_OF_PERICENTER = 215.4132
MEAN_ANOMALY   = 144.5391

EPHEMERIS_TYPE = 0
CLASSIFICATION_TYPE = U
NORAD_CAT_ID   = 43682
ELEMENT_SET_NO = 999
REV_AT_EPOCH   = 39722
BSTAR          = .36181387E-3
MEAN_MOTION_DOT = .13916E-3
MEAN_MOTION_DDOT = 0

CCSDS_OMM_VERS = 2.0
CREATION_DATE  = 
ORIGINATOR     = 

OBJECT_NAME    = SAOCOM 1B
OBJECT_ID      = 2020-059A
CENTER_NAME    = EARTH
REF_FRAME      = TEME
TIME_SYSTEM    = UTC
MEAN_ELEMENT_THEORY = SGP/SGP4

EPOCH          = 2026-01-13T07:09:09.200160
MEAN_MOTION    = 14.82148585
ECCENTRICITY   = .0001356
INCLINATION    = 97.8853
RA_OF_ASC_NODE = 201.3603
ARG_OF_PERICENTER = 84.2793
MEAN_ANOMALY   = 275.8574

EPHEMERIS_TYPE = 0
CLASSIFICATION_TYPE = U
NORAD_CAT_ID   = 46265
ELEMENT_SET_NO = 999
REV_AT_EPOCH   = 29054
BSTAR          = .54997174E-4
MEAN_MOTION_DOT = .386E-5
MEAN_MOTION_DDOT = 0

CCSDS_OMM_VERS = 2.0
CREATION_DATE  = 
ORIGINATOR     = 

OBJECT_NAME    = CSS (TIANHE)
OBJECT_ID      = 2021-035A
CENTER_NAME    = EARTH
REF_FRAME      = TEME
TIME_SYSTEM    = UTC
MEAN_ELEMENT_THEORY = SGP/SGP4

EPOCH          = 2026-01-13T03:37:59.080800
MEAN_MOTION    = 15.60470447
ECCENTRICITY   = .00114966
INCLINATION    = 41.4653
RA_OF_ASC_NODE = 185.8172
ARG_OF_PERICENTER = 274.9495
MEAN_ANOMALY   = 85.0032

EPHEMERIS_TYPE = 0
CLASSIFICATION_TYPE = U
NORAD_CAT_ID   = 48274
ELEMENT_SET_NO = 999
REV_AT_EPOCH   = 26893
BSTAR          = .19385442E-3
MEAN_MOTION_DOT = .16157E-3
MEAN_MOTION_DDOT = 0

CCSDS_OMM_VERS = 2.0
CREATION_DATE  = 
ORIGINATOR     = 

OBJECT_NAME    = COSMOS 2550
OBJECT_ID      = 2021-056A
CENTER_NAME    = EARTH
REF_FRAME      = TEME
TIME_SYSTEM    = UTC
MEAN_ELEMENT_THEORY = SGP/SGP4

EPOCH          = 2026-01-13T06:52:34.976352
MEAN_MOTION    = 15.33832982
ECCENTRICITY   = .00082878
INCLINATION    = 67.1410
RA_OF_ASC_NODE = 208.5133
ARG_OF_PERICENTER = 269.9029
MEAN_ANOMALY   = 90.1176

EPHEMERIS_TYPE = 0
CLASSIFICATION_TYPE = U
NORAD_CAT_ID   = 48865
ELEMENT_SET_NO = 999
REV_AT_EPOCH   = 25496
BSTAR          = .539307E-6
MEAN_MOTION_DOT = -.174E-5
MEAN_MOTION_DDOT = 0

CCSDS_OMM_VERS = 2.0
CREATION_DATE  = 
ORIGINATOR     = 

OBJECT_NAME    = CZ-2C R/B
OBJECT_ID      = 2022-058K
CENTER_NAME    = EARTH
REF_FRAME      = TEME
TIME_SYSTEM    = UTC
MEAN_ELEMENT_THEORY = SGP/SGP4

EPOCH          = 2026-01-13T00:30:50.060736
MEAN_MOTION    = 15.50415241
ECCENTRICITY   = .00431
INCLINATION    = 50.1896
RA_OF_ASC_NODE = 243.8028
ARG_OF_PERICENTER = 326.7511
MEAN_ANOMALY   = 33.0752

EPHEMERIS_TYPE = 0
CLASSIFICATION_TYPE = U
NORAD_CAT_ID   = 52794
ELEMENT_SET_NO = 999
REV_AT_EPOCH   = 20148
BSTAR          = .27982811E-3
MEAN_MOTION_DOT = .16407E-3
MEAN_MOTION_DDOT = 0

